start=new Date('2022-06-04T00:00:00.000Z').valueOf();
sats=[{"OBJECT_NAME":"STARLINK-1372","EPHEMERIS_TYPE":"0","ECCENTRICITY":"0.00019690","SITE":"AFETR","DECAY_DATE":null,"BSTAR":"0.00007252100000","APOAPSIS":"548.594","ARG_OF_PERICENTER":"50.1264","EPOCH":"2022-06-03T12:09:50.118912","TIME_SYSTEM":"UTC","CENTER_NAME":"EARTH","CLASSIFICATION_TYPE":"U","GP_ID":"205267394","OBJECT_TYPE":"PAYLOAD","REV_AT_EPOCH":"11723","MEAN_ELEMENT_THEORY":"SGP4","TLE_LINE1":"1 45543U 20025N   22154.50683008  .00000799  00000-0  72521-4 0  9990","FILE":"3479258","MEAN_ANOMALY":"309.9898","INCLINATION":"53.0549","COUNTRY_CODE":"US","ELEMENT_SET_NO":"999","PERIOD":"95.592","RA_OF_ASC_NODE":"160.0615","MEAN_MOTION_DDOT":"0.0000000000000","TLE_LINE2":"2 45543  53.0549 160.0615 0001969  50.1264 309.9898 15.06394371117230","PERIAPSIS":"545.867","OBJECT_ID":"2020-025N","MEAN_MOTION_DOT":"0.00000799","SEMIMAJOR_AXIS":"6925.366","MEAN_MOTION":"15.06394371","NORAD_CAT_ID":"45543","RCS_SIZE":"LARGE","LAUNCH_DATE":"2020-04-22","REF_FRAME":"TEME"},{"MEAN_MOTION_DOT":"0.00002971","SEMIMAJOR_AXIS":"6925.321","MEAN_MOTION":"15.06408871","RA_OF_ASC_NODE":"160.5747","TLE_LINE2":"2 45544  53.0542 160.5747 0001460  71.4493 288.6655 15.06408871117809","MEAN_MOTION_DDOT":"0.0000000000000","PERIAPSIS":"546.175","OBJECT_ID":"2020-025P","RCS_SIZE":"LARGE","LAUNCH_DATE":"2020-04-22","REF_FRAME":"TEME","NORAD_CAT_ID":"45544","CENTER_NAME":"EARTH","GP_ID":"205261823","OBJECT_TYPE":"PAYLOAD","CLASSIFICATION_TYPE":"U","EPHEMERIS_TYPE":"0","ECCENTRICITY":"0.00014600","OBJECT_NAME":"STARLINK-1373","DECAY_DATE":null,"SITE":"AFETR","APOAPSIS":"548.197","BSTAR":"0.00021822000000","EPOCH":"2022-06-03T09:25:15.830976","ARG_OF_PERICENTER":"71.4493","TIME_SYSTEM":"UTC","INCLINATION":"53.0542","MEAN_ANOMALY":"288.6655","COUNTRY_CODE":"US","PERIOD":"95.592","ELEMENT_SET_NO":"999","REV_AT_EPOCH":"11780","MEAN_ELEMENT_THEORY":"SGP4","TLE_LINE1":"1 45544U 20025P   22154.39254434  .00002971  00000-0  21822-3 0  9996","FILE":"3479192"},{"MEAN_ELEMENT_THEORY":"SGP4","TLE_LINE1":"1 45545U 20025Q   22154.27829169  .00000680  00000-0  64582-4 0  9993","FILE":"3479192","REV_AT_EPOCH":"11776","ELEMENT_SET_NO":"999","PERIOD":"95.592","MEAN_ANOMALY":"308.6110","INCLINATION":"53.0546","COUNTRY_CODE":"US","ARG_OF_PERICENTER":"51.5050","EPOCH":"2022-06-03T06:40:44.402016","TIME_SYSTEM":"UTC","OBJECT_NAME":"STARLINK-1374","ECCENTRICITY":"0.00019130","EPHEMERIS_TYPE":"0","DECAY_DATE":null,"SITE":"AFETR","APOAPSIS":"548.533","BSTAR":"0.00006458200000","CENTER_NAME":"EARTH","CLASSIFICATION_TYPE":"U","GP_ID":"205261566","OBJECT_TYPE":"PAYLOAD","NORAD_CAT_ID":"45545","REF_FRAME":"TEME","RCS_SIZE":"LARGE","LAUNCH_DATE":"2020-04-22","PERIAPSIS":"545.884","OBJECT_ID":"2020-025Q","RA_OF_ASC_NODE":"161.0701","TLE_LINE2":"2 45545  53.0546 161.0701 0001913  51.5050 308.6110 15.06401698117765","MEAN_MOTION_DDOT":"0.0000000000000","SEMIMAJOR_AXIS":"6925.343","MEAN_MOTION_DOT":"0.00000680","MEAN_MOTION":"15.06401698"},{"DECAY_DATE":null,"SITE":"AFETR","BSTAR":"-0.00005949000000","APOAPSIS":"548.217","OBJECT_NAME":"STARLINK-1375","EPHEMERIS_TYPE":"0","ECCENTRICITY":"0.00014070","TIME_SYSTEM":"UTC","ARG_OF_PERICENTER":"66.4239","EPOCH":"2022-06-03T11:43:15.708864","CLASSIFICATION_TYPE":"U","OBJECT_TYPE":"PAYLOAD","GP_ID":"205260323","CENTER_NAME":"EARTH","REV_AT_EPOCH":"11781","TLE_LINE1":"1 45546U 20025R   22154.48837626 -.00001167  00000-0 -59490-4 0  9999","FILE":"3479192","MEAN_ELEMENT_THEORY":"SGP4","COUNTRY_CODE":"US","MEAN_ANOMALY":"293.6898","INCLINATION":"53.0559","ELEMENT_SET_NO":"999","PERIOD":"95.593","TLE_LINE2":"2 45546  53.0559 160.1370 0001407  66.4239 293.6898 15.06390483117815","MEAN_MOTION_DDOT":"0.0000000000000","RA_OF_ASC_NODE":"160.1370","OBJECT_ID":"2020-025R","PERIAPSIS":"546.268","MEAN_MOTION_DOT":"-0.00001167","SEMIMAJOR_AXIS":"6925.378","MEAN_MOTION":"15.06390483","NORAD_CAT_ID":"45546","LAUNCH_DATE":"2020-04-22","RCS_SIZE":"LARGE","REF_FRAME":"TEME"},{"REV_AT_EPOCH":"11782","MEAN_ELEMENT_THEORY":"SGP4","TLE_LINE1":"1 45547U 20025S   22154.48468706  .00000185  00000-0  31289-4 0  9992","FILE":"3479192","MEAN_ANOMALY":"296.2211","INCLINATION":"53.0551","COUNTRY_CODE":"US","ELEMENT_SET_NO":"999","PERIOD":"95.592","OBJECT_NAME":"STARLINK-1377","EPHEMERIS_TYPE":"0","ECCENTRICITY":"0.00017000","DECAY_DATE":null,"SITE":"AFETR","APOAPSIS":"548.361","BSTAR":"0.00003128900000","EPOCH":"2022-06-03T11:37:56.961984","ARG_OF_PERICENTER":"63.8953","TIME_SYSTEM":"UTC","CENTER_NAME":"EARTH","CLASSIFICATION_TYPE":"U","GP_ID":"205260573","OBJECT_TYPE":"PAYLOAD","NORAD_CAT_ID":"45547","RCS_SIZE":"LARGE","LAUNCH_DATE":"2020-04-22","REF_FRAME":"TEME","RA_OF_ASC_NODE":"160.1529","TLE_LINE2":"2 45547  53.0551 160.1529 0001700  63.8953 296.2211 15.06409853117825","MEAN_MOTION_DDOT":"0.0000000000000","PERIAPSIS":"546.006","OBJECT_ID":"2020-025S","SEMIMAJOR_AXIS":"6925.318","MEAN_MOTION":"15.06409853","MEAN_MOTION_DOT":"0.00000185"},{"GP_ID":"205267558","OBJECT_TYPE":"PAYLOAD","CLASSIFICATION_TYPE":"U","CENTER_NAME":"EARTH","TIME_SYSTEM":"UTC","EPOCH":"2022-06-03T12:15:05.872032","ARG_OF_PERICENTER":"57.8582","SITE":"AFETR","DECAY_DATE":null,"APOAPSIS":"548.405","BSTAR":"0.00006677600000","EPHEMERIS_TYPE":"0","ECCENTRICITY":"0.00017300","OBJECT_NAME":"STARLINK-1378","PERIOD":"95.592","ELEMENT_SET_NO":"999","COUNTRY_CODE":"US","INCLINATION":"53.0541","MEAN_ANOMALY":"302.2574","FILE":"3479268","TLE_LINE1":"1 45548U 20025T   22154.51048463  .00000713  00000-0  66776-4 0  9997","MEAN_ELEMENT_THEORY":"SGP4","REV_AT_EPOCH":"11723","SEMIMAJOR_AXIS":"6925.342","MEAN_MOTION_DOT":"0.00000713","MEAN_MOTION":"15.06402243","OBJECT_ID":"2020-025T","PERIAPSIS":"546.009","MEAN_MOTION_DDOT":"0.0000000000000","TLE_LINE2":"2 45548  53.0541 160.0488 0001730  57.8582 302.2574 15.06402243117233","RA_OF_ASC_NODE":"160.0488","REF_FRAME":"TEME","LAUNCH_DATE":"2020-04-22","RCS_SIZE":"LARGE","NORAD_CAT_ID":"45548"},{"EPOCH":"2022-06-03T07:53:40.197408","ARG_OF_PERICENTER":"59.0942","TIME_SYSTEM":"UTC","OBJECT_NAME":"STARLINK-1390","EPHEMERIS_TYPE":"0","ECCENTRICITY":"0.00016920","BSTAR":"-0.00003022400000","DECAY_DATE":null,"SITE":"AFETR","APOAPSIS":"548.416","CENTER_NAME":"EARTH","CLASSIFICATION_TYPE":"U","OBJECT_TYPE":"PAYLOAD","GP_ID":"205262067","MEAN_ELEMENT_THEORY":"SGP4","TLE_LINE1":"1 45550U 20025V   22154.32893747 -.00000732  00000-0 -30224-4 0  9994","FILE":"3479192","REV_AT_EPOCH":"11778","ELEMENT_SET_NO":"999","PERIOD":"95.593","MEAN_ANOMALY":"301.0213","INCLINATION":"53.0526","COUNTRY_CODE":"US","PERIAPSIS":"546.072","OBJECT_ID":"2020-025V","RA_OF_ASC_NODE":"160.8565","MEAN_MOTION_DDOT":"0.0000000000000","TLE_LINE2":"2 45550  53.0526 160.8565 0001692  59.0942 301.0213 15.06389996117780","MEAN_MOTION":"15.06389996","SEMIMAJOR_AXIS":"6925.379","MEAN_MOTION_DOT":"-0.00000732","NORAD_CAT_ID":"45550","REF_FRAME":"TEME","RCS_SIZE":"LARGE","LAUNCH_DATE":"2020-04-22"},{"SEMIMAJOR_AXIS":"6925.375","MEAN_MOTION_DOT":"-0.00000849","MEAN_MOTION":"15.06391397","PERIAPSIS":"545.978","OBJECT_ID":"2020-025W","RA_OF_ASC_NODE":"140.5333","TLE_LINE2":"2 45551  53.0550 140.5333 0001822  51.5411 308.5741 15.06391397118089","MEAN_MOTION_DDOT":"0.0000000000000","REF_FRAME":"TEME","RCS_SIZE":"LARGE","LAUNCH_DATE":"2020-04-22","NORAD_CAT_ID":"45551","CENTER_NAME":"EARTH","CLASSIFICATION_TYPE":"U","GP_ID":"205260824","OBJECT_TYPE":"PAYLOAD","EPOCH":"2022-06-03T09:33:12.990528","ARG_OF_PERICENTER":"51.5411","TIME_SYSTEM":"UTC","OBJECT_NAME":"STARLINK-1294","EPHEMERIS_TYPE":"0","ECCENTRICITY":"0.00018220","BSTAR":"-0.00003807200000","DECAY_DATE":null,"SITE":"AFETR","APOAPSIS":"548.502","ELEMENT_SET_NO":"999","PERIOD":"95.593","MEAN_ANOMALY":"308.5741","INCLINATION":"53.0550","COUNTRY_CODE":"US","MEAN_ELEMENT_THEORY":"SGP4","TLE_LINE1":"1 45551U 20025W   22154.39806702 -.00000849  00000-0 -38072-4 0  9995","FILE":"3479192","REV_AT_EPOCH":"11808"},{"SEMIMAJOR_AXIS":"6757.168","MEAN_MOTION_DOT":"0.00158674","MEAN_MOTION":"15.62988043","RA_OF_ASC_NODE":"77.7290","TLE_LINE2":"2 45552  53.0430  77.7290 0009727 113.9075 246.2958 15.62988043118946","MEAN_MOTION_DDOT":"0.0000000000000","PERIAPSIS":"372.461","OBJECT_ID":"2020-025X","RCS_SIZE":"LARGE","LAUNCH_DATE":"2020-04-22","REF_FRAME":"TEME","NORAD_CAT_ID":"45552","CENTER_NAME":"EARTH","GP_ID":"205261074","OBJECT_TYPE":"PAYLOAD","CLASSIFICATION_TYPE":"U","ECCENTRICITY":"0.00097270","EPHEMERIS_TYPE":"0","OBJECT_NAME":"STARLINK-1322","DECAY_DATE":null,"APOAPSIS":"385.606","SITE":"AFETR","BSTAR":"0.00168630000000","EPOCH":"2022-06-03T03:49:32.921184","ARG_OF_PERICENTER":"113.9075","TIME_SYSTEM":"UTC","INCLINATION":"53.0430","MEAN_ANOMALY":"246.2958","COUNTRY_CODE":"US","PERIOD":"92.131","ELEMENT_SET_NO":"999","REV_AT_EPOCH":"11894","MEAN_ELEMENT_THEORY":"SGP4","FILE":"3479192","TLE_LINE1":"1 45552U 20025X   22154.15940881  .00158674  00000-0  16863-2 0  9997"},{"RCS_SIZE":"LARGE","LAUNCH_DATE":"2020-04-22","REF_FRAME":"TEME","NORAD_CAT_ID":"45553","MEAN_MOTION_DOT":"0.00000903","SEMIMAJOR_AXIS":"6925.383","MEAN_MOTION":"15.06388748","RA_OF_ASC_NODE":"140.1874","TLE_LINE2":"2 45553  53.0527 140.1874 0001907  56.2801 303.8369 15.06388748117494","MEAN_MOTION_DDOT":"0.0000000000000","PERIAPSIS":"545.927","OBJECT_ID":"2020-025Y","MEAN_ANOMALY":"303.8369","INCLINATION":"53.0527","COUNTRY_CODE":"US","ELEMENT_SET_NO":"999","PERIOD":"95.593","REV_AT_EPOCH":"11749","MEAN_ELEMENT_THEORY":"SGP4","TLE_LINE1":"1 45553U 20025Y   22154.47547528  .00000903  00000-0  79569-4 0  9999","FILE":"3478625","CENTER_NAME":"EARTH","CLASSIFICATION_TYPE":"U","OBJECT_TYPE":"PAYLOAD","GP_ID":"205229338","OBJECT_NAME":"STARLINK-1323","EPHEMERIS_TYPE":"0","ECCENTRICITY":"0.00019070","SITE":"AFETR","DECAY_DATE":null,"APOAPSIS":"548.569","BSTAR":"0.00007956900000","ARG_OF_PERICENTER":"56.2801","EPOCH":"2022-06-03T11:24:41.064192","TIME_SYSTEM":"UTC"}];
